[{"OBJECT_NAME":"GAOFEN-10R","OBJECT_ID":"2019-066A","EPOCH":"2025-03-09T21:17:02.975136","MEAN_MOTION":14.82597984,"ECCENTRICITY":0.0004876,"INCLINATION":97.9946,"RA_OF_ASC_NODE":15.9665,"ARG_OF_PERICENTER":169.7386,"MEAN_ANOMALY":190.3927,"EPHEMERIS_TYPE":0,"CLASSIFICATION_TYPE":"U","NORAD_CAT_ID":44622,"ELEMENT_SET_NO":999,"REV_AT_EPOCH":29357,"BSTAR":0.00041113,"MEAN_MOTION_DOT":3.256e-5,"MEAN_MOTION_DDOT":0},{"OBJECT_NAME":"CARTOSAT-3","OBJECT_ID":"2019-081A","EPOCH":"2025-03-09T21:05:33.480672","MEAN_MOTION":15.19256435,"ECCENTRICITY":0.0013412,"INCLINATION":97.4937,"RA_OF_ASC_NODE":131.3024,"ARG_OF_PERICENTER":329.2632,"MEAN_ANOMALY":30.7816,"EPHEMERIS_TYPE":0,"CLASSIFICATION_TYPE":"U","NORAD_CAT_ID":44804,"ELEMENT_SET_NO":999,"REV_AT_EPOCH":29297,"BSTAR":0.00036376,"MEAN_MOTION_DOT":7.619e-5,"MEAN_MOTION_DDOT":0},{"OBJECT_NAME":"GAOFEN-12 01","OBJECT_ID":"2019-082A","EPOCH":"2025-03-09T22:55:10.654752","MEAN_MOTION":14.80213959,"ECCENTRICITY":0.0004141,"INCLINATION":97.8185,"RA_OF_ASC_NODE":82.4715,"ARG_OF_PERICENTER":81.9193,"MEAN_ANOMALY":278.2489,"EPHEMERIS_TYPE":0,"CLASSIFICATION_TYPE":"U","NORAD_CAT_ID":44819,"ELEMENT_SET_NO":999,"REV_AT_EPOCH":28540,"BSTAR":0.00014556,"MEAN_MOTION_DOT":1.056e-5,"MEAN_MOTION_DDOT":0},{"OBJECT_NAME":"CSG-1","OBJECT_ID":"2019-092A","EPOCH":"2025-03-09T21:59:48.420960","MEAN_MOTION":14.82142664,"ECCENTRICITY":0.0001601,"INCLINATION":97.8859,"RA_OF_ASC_NODE":254.2577,"ARG_OF_PERICENTER":80.9742,"MEAN_ANOMALY":279.1652,"EPHEMERIS_TYPE":0,"CLASSIFICATION_TYPE":"U","NORAD_CAT_ID":44873,"ELEMENT_SET_NO":999,"REV_AT_EPOCH":28270,"BSTAR":0.00013461,"MEAN_MOTION_DOT":1.019e-5,"MEAN_MOTION_DDOT":0},{"OBJECT_NAME":"NEMO-HD","OBJECT_ID":"2020-061F","EPOCH":"2025-03-09T21:13:47.694720","MEAN_MOTION":15.33722136,"ECCENTRICITY":3.17e-5,"INCLINATION":97.2578,"RA_OF_ASC_NODE":132.1952,"ARG_OF_PERICENTER":118.5481,"MEAN_ANOMALY":241.5794,"EPHEMERIS_TYPE":0,"CLASSIFICATION_TYPE":"U","NORAD_CAT_ID":46277,"ELEMENT_SET_NO":999,"REV_AT_EPOCH":25056,"BSTAR":0.00041114,"MEAN_MOTION_DOT":0.00013338,"MEAN_MOTION_DDOT":0},{"OBJECT_NAME":"SENTINEL-6","OBJECT_ID":"2020-086A","EPOCH":"2025-03-09T22:10:37.690176","MEAN_MOTION":12.80930803,"ECCENTRICITY":0.0007953,"INCLINATION":66.044,"RA_OF_ASC_NODE":19.3313,"ARG_OF_PERICENTER":271.8711,"MEAN_ANOMALY":88.1393,"EPHEMERIS_TYPE":0,"CLASSIFICATION_TYPE":"U","NORAD_CAT_ID":46984,"ELEMENT_SET_NO":999,"REV_AT_EPOCH":20086,"BSTAR":-2.4261e-5,"MEAN_MOTION_DOT":-6.7e-7,"MEAN_MOTION_DDOT":0},{"OBJECT_NAME":"GAOFEN-12 02","OBJECT_ID":"2021-026A","EPOCH":"2025-03-09T22:55:43.677696","MEAN_MOTION":14.8021198,"ECCENTRICITY":9.57e-5,"INCLINATION":97.971,"RA_OF_ASC_NODE":64.587,"ARG_OF_PERICENTER":324.4946,"MEAN_ANOMALY":35.6202,"EPHEMERIS_TYPE":0,"CLASSIFICATION_TYPE":"U","NORAD_CAT_ID":48079,"ELEMENT_SET_NO":999,"REV_AT_EPOCH":21307,"BSTAR":0.00015146,"MEAN_MOTION_DOT":1.099e-5,"MEAN_MOTION_DDOT":0},{"OBJECT_NAME":"PLEIADES NEO 3","OBJECT_ID":"2021-034A","EPOCH":"2025-03-09T21:35:51.206208","MEAN_MOTION":14.81683609,"ECCENTRICITY":9.82e-5,"INCLINATION":97.8929,"RA_OF_ASC_NODE":145.3267,"ARG_OF_PERICENTER":105.7487,"MEAN_ANOMALY":254.3834,"EPHEMERIS_TYPE":0,"CLASSIFICATION_TYPE":"U","NORAD_CAT_ID":48268,"ELEMENT_SET_NO":999,"REV_AT_EPOCH":20890,"BSTAR":0.00036385,"MEAN_MOTION_DOT":2.813e-5,"MEAN_MOTION_DDOT":0},{"OBJECT_NAME":"PLEIADES NEO 4","OBJECT_ID":"2021-073E","EPOCH":"2025-03-09T22:24:27.777312","MEAN_MOTION":14.81674655,"ECCENTRICITY":0.000102,"INCLINATION":97.8933,"RA_OF_ASC_NODE":145.3562,"ARG_OF_PERICENTER":92.9409,"MEAN_ANOMALY":267.1921,"EPHEMERIS_TYPE":0,"CLASSIFICATION_TYPE":"U","NORAD_CAT_ID":49070,"ELEMENT_SET_NO":999,"REV_AT_EPOCH":19262,"BSTAR":0.00034893,"MEAN_MOTION_DOT":2.695e-5,"MEAN_MOTION_DDOT":0},{"OBJECT_NAME":"LANDSAT 9","OBJECT_ID":"2021-088A","EPOCH":"2025-03-09T18:50:23.326080","MEAN_MOTION":14.5711874,"ECCENTRICITY":0.000119,"INCLINATION":98.1984,"RA_OF_ASC_NODE":140.7974,"ARG_OF_PERICENTER":88.8886,"MEAN_ANOMALY":271.2449,"EPHEMERIS_TYPE":0,"CLASSIFICATION_TYPE":"U","NORAD_CAT_ID":49260,"ELEMENT_SET_NO":999,"REV_AT_EPOCH":18336,"BSTAR":0.00020372,"MEAN_MOTION_DOT":8.73e-6,"MEAN_MOTION_DDOT":0},{"OBJECT_NAME":"CSG-2","OBJECT_ID":"2022-008A","EPOCH":"2025-03-09T21:11:10.336992","MEAN_MOTION":14.82158664,"ECCENTRICITY":0.0001317,"INCLINATION":97.8915,"RA_OF_ASC_NODE":254.2107,"ARG_OF_PERICENTER":83.4721,"MEAN_ANOMALY":276.6642,"EPHEMERIS_TYPE":0,"CLASSIFICATION_TYPE":"U","NORAD_CAT_ID":51444,"ELEMENT_SET_NO":999,"REV_AT_EPOCH":16781,"BSTAR":0.00012533,"MEAN_MOTION_DOT":9.46e-6,"MEAN_MOTION_DDOT":0},{"OBJECT_NAME":"GAOFEN-12 03","OBJECT_ID":"2022-069A","EPOCH":"2025-03-09T21:46:27.113664","MEAN_MOTION":14.8075815,"ECCENTRICITY":0.0003762,"INCLINATION":97.8831,"RA_OF_ASC_NODE":321.8268,"ARG_OF_PERICENTER":55.8819,"MEAN_ANOMALY":304.275,"EPHEMERIS_TYPE":0,"CLASSIFICATION_TYPE":"U","NORAD_CAT_ID":52912,"ELEMENT_SET_NO":999,"REV_AT_EPOCH":14593,"BSTAR":0.00045626,"MEAN_MOTION_DOT":3.463e-5,"MEAN_MOTION_DDOT":0},{"OBJECT_NAME":"SWOT","OBJECT_ID":"2022-173A","EPOCH":"2025-03-09T21:25:50.814336","MEAN_MOTION":14.0016707,"ECCENTRICITY":8.22e-5,"INCLINATION":77.61,"RA_OF_ASC_NODE":302.0628,"ARG_OF_PERICENTER":56.1039,"MEAN_ANOMALY":304.019,"EPHEMERIS_TYPE":0,"CLASSIFICATION_TYPE":"U","NORAD_CAT_ID":54754,"ELEMENT_SET_NO":999,"REV_AT_EPOCH":11417,"BSTAR":0.00015629,"MEAN_MOTION_DOT":2.28e-6,"MEAN_MOTION_DDOT":0},{"OBJECT_NAME":"GAOFEN-12 04","OBJECT_ID":"2023-123A","EPOCH":"2025-03-09T22:32:28.619232","MEAN_MOTION":14.80917952,"ECCENTRICITY":0.0002551,"INCLINATION":97.9112,"RA_OF_ASC_NODE":348.7244,"ARG_OF_PERICENTER":138.2653,"MEAN_ANOMALY":221.8754,"EPHEMERIS_TYPE":0,"CLASSIFICATION_TYPE":"U","NORAD_CAT_ID":57654,"ELEMENT_SET_NO":999,"REV_AT_EPOCH":8395,"BSTAR":0.00037821,"MEAN_MOTION_DOT":2.872e-5,"MEAN_MOTION_DDOT":0},{"OBJECT_NAME":"PARS 1","OBJECT_ID":"2024-039Q","EPOCH":"2025-03-09T21:08:03.056352","MEAN_MOTION":15.33952585,"ECCENTRICITY":0.0011835,"INCLINATION":97.4295,"RA_OF_ASC_NODE":36.0632,"ARG_OF_PERICENTER":358.5583,"MEAN_ANOMALY":1.5623,"EPHEMERIS_TYPE":0,"CLASSIFICATION_TYPE":"U","NORAD_CAT_ID":59065,"ELEMENT_SET_NO":999,"REV_AT_EPOCH":5719,"BSTAR":0.00048087,"MEAN_MOTION_DOT":0.00015763,"MEAN_MOTION_DDOT":0},{"OBJECT_NAME":"RESURS-P 4","OBJECT_ID":"2024-061A","EPOCH":"2025-03-09T21:29:39.706080","MEAN_MOTION":15.32870805,"ECCENTRICITY":0.0002933,"INCLINATION":97.2202,"RA_OF_ASC_NODE":21.3763,"ARG_OF_PERICENTER":109.39,"MEAN_ANOMALY":250.766,"EPHEMERIS_TYPE":0,"CLASSIFICATION_TYPE":"U","NORAD_CAT_ID":59371,"ELEMENT_SET_NO":999,"REV_AT_EPOCH":5265,"BSTAR":0.00024378,"MEAN_MOTION_DOT":7.665e-5,"MEAN_MOTION_DDOT":0},{"OBJECT_NAME":"LEGION 1","OBJECT_ID":"2024-081A","EPOCH":"2025-03-09T20:56:22.803360","MEAN_MOTION":15.16574315,"ECCENTRICITY":0.000462,"INCLINATION":97.5443,"RA_OF_ASC_NODE":145.2926,"ARG_OF_PERICENTER":76.5356,"MEAN_ANOMALY":283.6391,"EPHEMERIS_TYPE":0,"CLASSIFICATION_TYPE":"U","NORAD_CAT_ID":59625,"ELEMENT_SET_NO":999,"REV_AT_EPOCH":4715,"BSTAR":0.00051154,"MEAN_MOTION_DOT":9.927e-5,"MEAN_MOTION_DDOT":0}]
