GAOFEN-10R              
1 44622U 19066A   25068.88683999  .00003256  00000+0  41113-3 0  9999
2 44622  97.9946  15.9665 0004876 169.7386 190.3927 14.82597984293575
CARTOSAT-3              
1 44804U 19081A   25068.87885973  .00007619  00000+0  36376-3 0  9995
2 44804  97.4937 131.3024 0013412 329.2632  30.7816 15.19256435292978
GAOFEN-12 01            
1 44819U 19082A   25068.95498443  .00001056  00000+0  14556-3 0  9998
2 44819  97.8185  82.4715 0004141  81.9193 278.2489 14.80213959285405
CSG-1                   
1 44873U 19092A   25068.91653265  .00001019  00000+0  13461-3 0  9993
2 44873  97.8859 254.2577 0001601  80.9742 279.1652 14.82142664282703
NEMO-HD                 
1 46277U 20061F   25068.88457980  .00013338  00000+0  41114-3 0  9996
2 46277  97.2578 132.1952 0000317 118.5481 241.5794 15.33722136250561
SENTINEL-6              
1 46984U 20086A   25068.92404734 -.00000067  00000+0 -24261-4 0  9994
2 46984  66.0440  19.3313 0007953 271.8711  88.1393 12.80930803200866
GAOFEN-12 02            
1 48079U 21026A   25068.95536664  .00001099  00000+0  15146-3 0  9992
2 48079  97.9710  64.5870 0000957 324.4946  35.6202 14.80211980213071
PLEIADES NEO 3          
1 48268U 21034A   25068.89989822  .00002813  00000+0  36385-3 0  9995
2 48268  97.8929 145.3267 0000982 105.7487 254.3834 14.81683609208907
PLEIADES NEO 4          
1 49070U 21073E   25068.93365483  .00002695  00000+0  34893-3 0  9996
2 49070  97.8933 145.3562 0001020  92.9409 267.1921 14.81674655192628
LANDSAT 9               
1 49260U 21088A   25068.78499220  .00000873  00000+0  20372-3 0  9996
2 49260  98.1984 140.7974 0001190  88.8886 271.2449 14.57118740183369
CSG-2                   
1 51444U 22008A   25068.88275853  .00000946  00000+0  12533-3 0  9992
2 51444  97.8915 254.2107 0001317  83.4721 276.6642 14.82158664167818
GAOFEN-12 03            
1 52912U 22069A   25068.90725826  .00003463  00000+0  45626-3 0  9999
2 52912  97.8831 321.8268 0003762  55.8819 304.2750 14.80758150145933
SWOT                    
1 54754U 22173A   25068.89294924  .00000228  00000+0  15629-3 0  9995
2 54754  77.6100 302.0628 0000822  56.1039 304.0190 14.00167070114172
GAOFEN-12 04            
1 57654U 23123A   25068.93922013  .00002872  00000+0  37821-3 0  9990
2 57654  97.9112 348.7244 0002551 138.2653 221.8754 14.80917952 83951
PARS 1                  
1 59065U 24039Q   25068.88059093  .00015763  00000+0  48087-3 0  9997
2 59065  97.4295  36.0632 0011835 358.5583   1.5623 15.33952585 57193
RESURS-P 4              
1 59371U 24061A   25068.89559845  .00007665  00000+0  24378-3 0  9992
2 59371  97.2202  21.3763 0002933 109.3900 250.7660 15.32870805 52653
LEGION 1                
1 59625U 24081A   25068.87248615  .00009927  00000+0  51154-3 0  9999
2 59625  97.5443 145.2926 0004620  76.5356 283.6391 15.16574315 47151
